satname,norad_id,inclination_deg,eccentricity,mean_motion_rev_per_day,perigee_km,apogee_km,l1,l2
STARLINK-1008,44714,53.0577,0.0001348,15.06397441,546.2858628729718,548.1529389586594,1 44714U 19074B   25361.58586012  .00000719  00000+0  67140-4 0  9991,2 44714  53.0577 150.3058 0001348  82.4070 277.7072 15.06397441337889
STARLINK-1012,44718,53.0564,0.0001375,15.06405646,546.2420207680971,548.1464868628964,1 44718U 19074F   25361.63008983  .00001030  00000+0  88046-4 0  9992,2 44718  53.0564 150.1031 0001375 104.2529 255.8613 15.06405646337885
STARLINK-1017,44723,53.0481,0.0004848,15.18679676,506.4906542032968,513.1692269488794,1 44723U 19074L   25361.66926760  .00066430  00000+0  31504-2 0  9993,2 44723  53.0481 142.3036 0004848 125.7144 234.4302 15.18679676338008
STARLINK-1019,44724,53.049,0.0003808,15.59559154,386.3551278163459,391.5089275878436,1 44724U 19074M   25361.91671295  .00116419  00000+0  14235-2 0  9997,2 44724  53.0490 131.7592 0003808 285.3185 249.1389 15.59559154  5878
STARLINK-1020,44725,53.0543,0.0001735,15.06400852,546.0073991604695,548.4104942039685,1 44725U 19074N   25361.76462118 -.00002234  00000+0 -13114-3 0  9990,2 44725  53.0543 169.5029 0001735 100.8436 259.2748 15.06400852337623
STARLINK-1031,44736,53.045,0.0001095,15.6350471,376.80287171814234,378.28236555462354,1 44736U 19074Z   25361.91671295  .00120626  00000+0  12660-2 0  9995,2 44736  53.0450 118.2055 0001095  83.4213 243.7140 15.63504710  5874
STARLINK-1036,44741,53.0557,0.0001047,15.06724413,545.4924773085359,546.9424371318783,1 44741U 19074AE  25361.79381647  .00043707  00000+0  29094-2 0  9999,2 44741  53.0557 169.3652 0001047 113.4707 246.6392 15.06724413337631
STARLINK-1039,44744,53.05,0.0003398,15.15790692,516.2356261764089,520.9226344585722,1 44744U 19074AH  25361.81381929  .00029377  00000+0  15300-2 0  9990,2 44744  53.0500 183.9443 0003398  87.9919 272.1463 15.15790692337436
STARLINK-1042,44747,53.0456,0.0001745,15.45972957,427.3329682376707,429.7084917854436,1 44747U 19074AL  25361.46657828  .00021453  00000+0  44062-3 0  9993,2 44747  53.0456  80.2913 0001745 318.8689  41.2185 15.45972957338889
STARLINK-1043,44748,53.054,0.0003165,15.46450942,424.9642366899425,429.27196316819754,1 44748U 19074AM  25361.78191537  .00119211  00000+0  23398-2 0  9997,2 44748  53.0540 179.7272 0003165 166.1929 193.9165 15.46450942337490
STARLINK-1046,44751,53.0531,0.0001605,15.12707836,526.8377330728154,529.0545857669886,1 44751U 19074AQ  25361.91671295  .01652618  00000+0  85484-1 0  9997,2 44751  53.0531 188.7487 0001605  54.9163 357.7831 15.12707836  5596
STARLINK-1047,44752,53.0708,0.000286,15.30717273,471.711403340516,475.6306375282038,1 44752U 19074AR  25361.71990286  .00013044  00000+0  44460-3 0  9994,2 44752  53.0708 121.7527 0002860  22.0519 338.0603 15.30717273338314
STARLINK-1048,44753,53.0552,7.53e-05,15.06564,546.1875262540625,547.2304080567164,1 44753U 19074AS  25361.67415806  .00021067  00000+0  14227-2 0  9991,2 44753  53.0552 149.9052 0000753 323.2479  36.8458 15.06564000337891
STARLINK-1053,44758,53.0377,0.0001294,15.69528874,359.37316689941326,361.11706019039866,1 44758U 19074AX  25361.63581682  .00099220  00000+0  82007-3 0  9996,2 44758  53.0377  84.4531 0001294 323.8506  36.2423 15.69528874338822
STARLINK-1060,44765,53.0442,0.0003739,15.8140317,323.96487309542044,328.9785795009475,1 44765U 19074BE  25361.91671295  .00228476  00000+0  11030-2 0  9999,2 44765  53.0442 126.5526 0003739 233.2743  42.2877 15.81403170  6027
STARLINK-1063,44768,53.0546,0.0001641,15.06401386,546.0708610498759,548.3437590524336,1 44768U 19074BH  25361.83650229 -.00000596  00000+0 -21110-4 0  9992,2 44768  53.0546 189.1811 0001641  91.1363 268.9814 15.06401386337373
STARLINK-1067,44771,53.0588,0.0001349,15.30307139,473.97071629867423,475.81966438362815,1 44771U 19074BL  25361.91671295  .01118275  00000+0  34786-1 0  9994,2 44771  53.0588 187.7443 0001349  75.5013 256.2530 15.30307139  5837
STARLINK-1068,44772,53.055,0.0001088,15.41067588,442.2151148506837,443.6993849594637,1 44772U 19074BM  25361.91671295  .00169480  00000+0  39596-2 0  9993,2 44772  53.0550 165.8785 0001088  39.3130 217.6029 15.41067588  5838
STARLINK-1112,44925,53.0451,0.0009741,15.6944687,353.9157463021247,367.043919616096,1 44925U 20001M   25361.91671295  .00108611  00000+0  89720-3 0  9999,2 44925  53.0451 244.3048 0009741  94.6183  15.2979 15.69446870  5931
STARLINK-1114,44927,53.0538,0.000122,15.11550749,530.6271267653065,532.3130708974204,1 44927U 20001P   25361.91671295  .00046479  00000+0  27094-2 0  9999,2 44927  53.0538 308.7664 0001220  97.9275 265.7904 15.11550749  5837
STARLINK-1123,44930,53.0559,0.0001265,15.06400898,546.3327494545583,548.0848619434,1 44930U 20001S   25361.13985894 -.00004096  00000+0 -25625-3 0  9990,2 44930  53.0559 312.3081 0001265  95.2482 264.8652 15.06400898328918
STARLINK-1144,44933,53.0372,0.0001775,15.79690421,330.12615171244397,332.50800791077654,1 44933U 20001V   25361.91671295  .00137750  00000+0  72859-3 0  9999,2 44933  53.0372 217.6861 0001775 162.6241 285.3723 15.79690421  5962
STARLINK-1094,44941,53.0532,0.0001363,15.06390406,546.2970333062831,548.184891338813,1 44941U 20001AD  25361.21911287  .00002615  00000+0  19445-3 0  9992,2 44941  53.0532 291.9542 0001363  96.9270 263.1874 15.06390406329201
STARLINK-1122,44949,53.0546,0.0001282,15.06390703,546.3522187127382,548.1278853888853,1 44949U 20001AM  25361.50661372 -.00002608  00000+0 -15629-3 0  9993,2 44949  53.0546 290.6607 0001282  93.3458 266.7678 15.06390703329246
STARLINK-1080,44961,53.0548,0.0001691,15.23918405,492.87309194210775,495.19726057211756,1 44961U 20001AZ  25361.91671295  .01651630  00000+0  61024-1 0  9999,2 44961  53.0548 268.1278 0001691  83.7402 349.9103 15.23918405  5839
STARLINK-1090,44968,53.0552,0.0001443,15.06395486,546.2260629394168,548.2247225259607,1 44968U 20001BG  25361.77385022  .00003239  00000+0  23629-3 0  9996,2 44968  53.0552 269.4614 0001443  98.1849 261.9304 15.06395486329574
STARLINK-1132,45044,53.0551,0.0001535,15.06397496,546.1561901666,548.2822745299309,1 45044U 20006A   25361.86599255 -.00000205  00000+0  51564-5 0  9994,2 45044  53.0551 229.0524 0001535  92.0342 268.0823 15.06397496325915
STARLINK-1131,45047,53.0548,0.0001503,15.06412533,546.132272249677,548.2140204796742,1 45047U 20006D   25361.84208075  .00001644  00000+0  12919-3 0  9998,2 45047  53.0548 249.6964 0001503  90.3166 269.7995 15.06412533325626
STARLINK-1134,45048,53.0368,0.0004979,15.33811421,461.0462547751458,467.8601060768151,1 45048U 20006E   25361.86805456  .00071249  00000+0  21386-2 0  9992,2 45048  53.0368 217.3975 0004979  55.6409 304.5062 15.33811421326088
STARLINK-1156,45054,53.054,0.0001695,15.06395743,546.0507562688244,548.3984538529403,1 45054U 20006L   25361.41446845  .00000564  00000+0  56777-4 0  9999,2 45054  53.0540 251.0755 0001695  89.7682 270.3501 15.06395743325565
STARLINK-1159,45057,53.0515,0.0007361,15.58959963,385.68336321171955,395.6483948101986,1 45057U 20006P   25361.83483120  .00110857  00000+0  13868-2 0  9994,2 45057  53.0515 230.1566 0007361 112.8159 247.3631 15.58959963325904
STARLINK-1166,45060,53.0569,0.0002058,15.06412005,545.7495354255116,548.5999937478155,1 45060U 20006S   25361.83833696 -.00002464  00000+0 -14651-3 0  9993,2 45060  53.0569 249.1714 0002058 133.9929 226.1230 15.06412005325633
STARLINK-1169,45061,53.0535,0.0001895,15.06412988,545.8594058664148,548.4840978833754,1 45061U 20006T   25361.11592261  .00014301  00000+0  97667-3 0  9994,2 45061  53.0535 252.4173 0001895  78.4978 281.6224 15.06412988325525
STARLINK-1171,45062,53.0514,0.0014299,15.42074259,430.23913462439305,449.73760956350634,1 45062U 20006U   25361.82215384  .00083404  00000+0  19042-2 0  9991,2 45062  53.0514 234.3843 0014299 106.6423 253.6152 15.42074259325846
STARLINK-1133,45064,53.0534,0.0001429,15.06398076,546.227821575867,548.2070878790273,1 45064U 20006W   25361.64484464  .00001756  00000+0  13678-3 0  9990,2 45064  53.0534 230.0424 0001429  92.4877 267.6276 15.06398076325886
STARLINK-1167,45071,53.0535,0.0001753,15.06401813,545.991988731832,548.4200139881086,1 45071U 20006AD  25361.80333356  .00001764  00000+0  13732-3 0  9999,2 45071  53.0535 229.3284 0001753  90.3909 269.7281 15.06401813325909
STARLINK-1168,45072,53.0561,0.0001782,15.0640212,545.9709644960603,548.4391564064053,1 45072U 20006AE  25361.87335738  .00001201  00000+0  99515-4 0  9993,2 45072  53.0561 229.0152 0001782 111.2745 248.8434 15.06402120325914
STARLINK-1172,45074,53.0528,0.0001662,15.06410044,546.0297868817652,548.3317625100735,1 45074U 20006AG  25361.81806380  .00001759  00000+0  13694-3 0  9996,2 45074  53.0528 229.2642 0001662 101.3417 258.7759 15.06410044325901
STARLINK-1153,45080,53.0555,0.0001706,15.0639359,546.049735919175,548.4126715502889,1 45080U 20006AN  25361.79595318 -.00001150  00000+0 -58310-4 0  9998,2 45080  53.0555 229.3539 0001706 118.1274 241.9888 15.06393590325903
STARLINK-1151,45081,53.0537,0.0001609,15.43715283,434.0593177189194,436.2518352700363,1 45081U 20006AP  25361.91671295  .00069052  00000+0  15014-2 0  9997,2 45081  53.0537 225.4912 0001609 106.9182 216.8783 15.43715283  5796
STARLINK-1185,45087,53.0557,0.0001966,15.06395452,545.8639706714166,548.587023205213,1 45087U 20006AV  25361.82360752  .00000918  00000+0  80549-4 0  9999,2 45087  53.0557 209.2378 0001966 109.5864 250.5338 15.06395452326194
STARLINK-1183,45088,53.054,0.0001534,15.06394118,546.1672342455604,548.2919367139866,1 45088U 20006AW  25361.84572183 -.00000423  00000+0 -95236-5 0  9998,2 45088  53.0540 209.1402 0001534 107.3391 252.7766 15.06394118326193
STARLINK-1152,45096,53.0427,0.0005871,15.29452543,473.42283634070736,481.4726639543296,1 45096U 20006BE  25361.80292330  .00047304  00000+0  16356-2 0  9996,2 45096  53.0427 183.2850 0005871  98.2906 261.8759 15.29452543326558
